*******************************************************************************
Ephemeris / WWW_USER Mon Mar 24 11:56:54 2025 Pasadena, USA      / Horizons    
*******************************************************************************
Target body name: Hale-Bopp (C/1995 O1)           {source: JPL#226}
Center body name: Earth (399)                     {source: DE441}
Center-site name: Gemini South Obs., Cerro Pachon
*******************************************************************************
Start time      : A.D. 2018-Aug-02 22:19:00.0000 UT      
Stop  time      : A.D. 2018-Aug-03 11:18:00.0000 UT      
Step-size       : 1 minutes
*******************************************************************************
Target pole/equ : undefined
Target radii    : 30. km                                                       
Center geodetic : 289.2634, -30.2406227, 2.71233  {E-lon(deg),Lat(deg),Alt(km)}
Center cylindric: 289.2634,5517.21435,-3194.81213 {E-lon(deg),Dxy(km),Dz(km)}
Center pole/equ : ITRF93                          {East-longitude positive}
Center radii    : 6378.137, 6378.137, 6356.752 km {Equator_a, b, pole_c}       
Target primary  : Sun
Vis. interferer : MOON (R_eq= 1737.400) km        {source: DE441}
Rel. light bend : Sun                             {source: DE441}
Rel. lght bnd GM: 1.3271E+11 km^3/s^2                                          
Small-body perts: Yes                             {source: SB441-N16}
Atmos refraction: NO (AIRLESS)
RA format       : HMS
Time format     : CAL 
Calendar mode   : Mixed Julian/Gregorian
RTS-only print  : NO       
EOP file        : eop.250321.p250617                                           
EOP coverage    : DATA-BASED 1962-JAN-20 TO 2025-MAR-21. PREDICTS-> 2025-JUN-16
Units conversion: 1 au= 149597870.700 km, c= 299792.458 km/s, 1 day= 86400.0 s 
Table cut-offs 1: Elevation (-90.0deg=NO ),Airmass (>38.000=NO), Daylight (YES)
Table cut-offs 2: Solar elongation (  0.0,180.0=NO ),Local Hour Angle( 0.0=NO )
Table cut-offs 3: RA/DEC angular rate (     0.0=NO )                           
*******************************************************************************
Initial IAU76/J2000 heliocentric ecliptic osculating elements (au, days, deg.):
  EPOCH=  2459837.5 ! 2022-Sep-15.0000000 (TDB)    RMSW= n.a.                  
   EC= .9949810027633206   QR= .890537663547794    TP= 2450537.1349071441      
   OM= 282.7334213961641   W= 130.4146670659176    IN= 89.28759424740302       
  Equivalent ICRF heliocentric cartesian coordinates (au, au/d):
   X= 3.907631452214869E+00  Y=-1.373895334060347E+00  Z=-4.624358508575312E+01
  VX= 3.778244409519935E-04 VY=-5.803173067116371E-04 VZ=-3.255716412104052E-03
Comet physical (GM= km^3/s^2; RAD= km):                                        
   GM= n.a.                RAD= 30.                                            
   M1=  4.8      M2=  n.a.     k1=  4.     k2= n.a.     PHCOF= n.a.            
*******************************************************************************
 Date__(UT)__HR:MN     R.A._________(ICRF)_________DEC
******************************************************
$$SOE
 2018-Aug-03 04:31  m  00 18 42.024983 -86 16 06.08813
 2018-Aug-03 04:32  m  00 18 41.989589 -86 16 06.13677
 2018-Aug-03 04:33  m  00 18 41.954192 -86 16 06.18541
 2018-Aug-03 04:34  m  00 18 41.918791 -86 16 06.23404
 2018-Aug-03 04:35  m  00 18 41.883386 -86 16 06.28267
 2018-Aug-03 04:36  m  00 18 41.847978 -86 16 06.33130
 2018-Aug-03 04:37  m  00 18 41.812566 -86 16 06.37993
 2018-Aug-03 04:38  m  00 18 41.777150 -86 16 06.42855
 2018-Aug-03 04:39  m  00 18 41.741730 -86 16 06.47718
 2018-Aug-03 04:40  m  00 18 41.706306 -86 16 06.52580
 2018-Aug-03 04:41  m  00 18 41.670879 -86 16 06.57441
 2018-Aug-03 04:42  m  00 18 41.635448 -86 16 06.62303
 2018-Aug-03 04:43  m  00 18 41.600013 -86 16 06.67164
 2018-Aug-03 04:44  m  00 18 41.564575 -86 16 06.72025
 2018-Aug-03 04:45  m  00 18 41.529133 -86 16 06.76885
 2018-Aug-03 04:46  m  00 18 41.493687 -86 16 06.81746
 2018-Aug-03 04:47  m  00 18 41.458238 -86 16 06.86606
 2018-Aug-03 04:48  m  00 18 41.422785 -86 16 06.91465
 2018-Aug-03 04:49  m  00 18 41.387328 -86 16 06.96325
 2018-Aug-03 04:50  m  00 18 41.351867 -86 16 07.01184
 2018-Aug-03 04:51  m  00 18 41.316403 -86 16 07.06043
 2018-Aug-03 04:52  m  00 18 41.280936 -86 16 07.10902
 2018-Aug-03 04:53  m  00 18 41.245465 -86 16 07.15761
 2018-Aug-03 04:54  m  00 18 41.209990 -86 16 07.20619
 2018-Aug-03 04:55  m  00 18 41.174511 -86 16 07.25477
 2018-Aug-03 04:56  m  00 18 41.139029 -86 16 07.30334
 2018-Aug-03 04:57  m  00 18 41.103544 -86 16 07.35192
 2018-Aug-03 04:58  m  00 18 41.068055 -86 16 07.40049
 2018-Aug-03 04:59  m  00 18 41.032562 -86 16 07.44906
 2018-Aug-03 05:00  m  00 18 40.997066 -86 16 07.49762
 2018-Aug-03 05:01  m  00 18 40.961566 -86 16 07.54618
 2018-Aug-03 05:02  m  00 18 40.926063 -86 16 07.59474
 2018-Aug-03 05:03  m  00 18 40.890556 -86 16 07.64330
 2018-Aug-03 05:04  m  00 18 40.855046 -86 16 07.69185
 2018-Aug-03 05:05  m  00 18 40.819532 -86 16 07.74040
 2018-Aug-03 05:06  m  00 18 40.784015 -86 16 07.78895
 2018-Aug-03 05:07  m  00 18 40.748494 -86 16 07.83750
 2018-Aug-03 05:08  m  00 18 40.712970 -86 16 07.88604
 2018-Aug-03 05:09  m  00 18 40.677442 -86 16 07.93458
 2018-Aug-03 05:10  m  00 18 40.641911 -86 16 07.98312
 2018-Aug-03 05:11  m  00 18 40.606377 -86 16 08.03165
 2018-Aug-03 05:12  m  00 18 40.570839 -86 16 08.08018
 2018-Aug-03 05:13  m  00 18 40.535298 -86 16 08.12871
 2018-Aug-03 05:14  m  00 18 40.499753 -86 16 08.17723
 2018-Aug-03 05:15  m  00 18 40.464205 -86 16 08.22575
 2018-Aug-03 05:16  m  00 18 40.428653 -86 16 08.27427
 2018-Aug-03 05:17  m  00 18 40.393099 -86 16 08.32279
 2018-Aug-03 05:18  m  00 18 40.357541 -86 16 08.37130
 2018-Aug-03 05:19  m  00 18 40.321979 -86 16 08.41981
 2018-Aug-03 05:20  m  00 18 40.286414 -86 16 08.46832
 2018-Aug-03 05:21  m  00 18 40.250846 -86 16 08.51682
 2018-Aug-03 05:22  m  00 18 40.215275 -86 16 08.56532
 2018-Aug-03 05:23  m  00 18 40.179700 -86 16 08.61382
 2018-Aug-03 05:24  m  00 18 40.144122 -86 16 08.66231
 2018-Aug-03 05:25  m  00 18 40.108541 -86 16 08.71080
 2018-Aug-03 05:26  m  00 18 40.072957 -86 16 08.75929
 2018-Aug-03 05:27  m  00 18 40.037369 -86 16 08.80778
 2018-Aug-03 05:28  m  00 18 40.001778 -86 16 08.85626
 2018-Aug-03 05:29  m  00 18 39.966184 -86 16 08.90474
 2018-Aug-03 05:30  m  00 18 39.930587 -86 16 08.95321
 2018-Aug-03 05:31  m  00 18 39.894986 -86 16 09.00168
 2018-Aug-03 05:32  m  00 18 39.859383 -86 16 09.05015
 2018-Aug-03 05:33  m  00 18 39.823776 -86 16 09.09862
 2018-Aug-03 05:34  m  00 18 39.788166 -86 16 09.14708
 2018-Aug-03 05:35  m  00 18 39.752553 -86 16 09.19554
 2018-Aug-03 05:36  m  00 18 39.716936 -86 16 09.24400
 2018-Aug-03 05:37  m  00 18 39.681317 -86 16 09.29245
 2018-Aug-03 05:38  m  00 18 39.645694 -86 16 09.34090
 2018-Aug-03 05:39  m  00 18 39.610069 -86 16 09.38935
 2018-Aug-03 05:40  m  00 18 39.574440 -86 16 09.43779
 2018-Aug-03 05:41  m  00 18 39.538808 -86 16 09.48623
 2018-Aug-03 05:42  m  00 18 39.503174 -86 16 09.53467
 2018-Aug-03 05:43  m  00 18 39.467536 -86 16 09.58310
 2018-Aug-03 05:44  m  00 18 39.431895 -86 16 09.63153
 2018-Aug-03 05:45  m  00 18 39.396251 -86 16 09.67996
 2018-Aug-03 05:46  m  00 18 39.360604 -86 16 09.72838
 2018-Aug-03 05:47  m  00 18 39.324954 -86 16 09.77680
 2018-Aug-03 05:48  m  00 18 39.289301 -86 16 09.82522
 2018-Aug-03 05:49  m  00 18 39.253645 -86 16 09.87364
 2018-Aug-03 05:50  m  00 18 39.217986 -86 16 09.92205
 2018-Aug-03 05:51  m  00 18 39.182325 -86 16 09.97045
 2018-Aug-03 05:52  m  00 18 39.146660 -86 16 10.01886
 2018-Aug-03 05:53  m  00 18 39.110992 -86 16 10.06726
 2018-Aug-03 05:54  m  00 18 39.075322 -86 16 10.11565
 2018-Aug-03 05:55  m  00 18 39.039648 -86 16 10.16405
 2018-Aug-03 05:56  m  00 18 39.003972 -86 16 10.21244
 2018-Aug-03 05:57  m  00 18 38.968293 -86 16 10.26083
 2018-Aug-03 05:58  m  00 18 38.932611 -86 16 10.30921
 2018-Aug-03 05:59  m  00 18 38.896926 -86 16 10.35759
 2018-Aug-03 06:00  m  00 18 38.861238 -86 16 10.40597
 2018-Aug-03 06:01  m  00 18 38.825548 -86 16 10.45434
 2018-Aug-03 06:02  m  00 18 38.789854 -86 16 10.50271
 2018-Aug-03 06:03  m  00 18 38.754158 -86 16 10.55107
 2018-Aug-03 06:04  m  00 18 38.718459 -86 16 10.59944
 2018-Aug-03 06:05  m  00 18 38.682758 -86 16 10.64780
 2018-Aug-03 06:06  m  00 18 38.647053 -86 16 10.69615
 2018-Aug-03 06:07  m  00 18 38.611346 -86 16 10.74450
 2018-Aug-03 06:08  m  00 18 38.575637 -86 16 10.79285
 2018-Aug-03 06:09  m  00 18 38.539924 -86 16 10.84120
 2018-Aug-03 06:10  m  00 18 38.504209 -86 16 10.88954
 2018-Aug-03 06:11  m  00 18 38.468491 -86 16 10.93788
 2018-Aug-03 06:12  m  00 18 38.432770 -86 16 10.98621
 2018-Aug-03 06:13  m  00 18 38.397047 -86 16 11.03454
 2018-Aug-03 06:14  m  00 18 38.361321 -86 16 11.08287
 2018-Aug-03 06:15  m  00 18 38.325593 -86 16 11.13120
 2018-Aug-03 06:16  m  00 18 38.289862 -86 16 11.17952
 2018-Aug-03 06:17  m  00 18 38.254128 -86 16 11.22783
 2018-Aug-03 06:18  m  00 18 38.218392 -86 16 11.27615
 2018-Aug-03 06:19  m  00 18 38.182653 -86 16 11.32446
 2018-Aug-03 06:20  m  00 18 38.146911 -86 16 11.37276
 2018-Aug-03 06:21  m  00 18 38.111167 -86 16 11.42106
 2018-Aug-03 06:22  m  00 18 38.075421 -86 16 11.46936
 2018-Aug-03 06:23  m  00 18 38.039672 -86 16 11.51766
 2018-Aug-03 06:24  m  00 18 38.003921 -86 16 11.56595
 2018-Aug-03 06:25  m  00 18 37.968167 -86 16 11.61424
 2018-Aug-03 06:26  m  00 18 37.932410 -86 16 11.66252
 2018-Aug-03 06:27  m  00 18 37.896651 -86 16 11.71080
 2018-Aug-03 06:28  m  00 18 37.860890 -86 16 11.75908
 2018-Aug-03 06:29  m  00 18 37.825126 -86 16 11.80735
 2018-Aug-03 06:30  m  00 18 37.789360 -86 16 11.85562
 2018-Aug-03 06:31  m  00 18 37.753591 -86 16 11.90389
 2018-Aug-03 06:32  m  00 18 37.717820 -86 16 11.95215
 2018-Aug-03 06:33  m  00 18 37.682047 -86 16 12.00041
 2018-Aug-03 06:34  m  00 18 37.646271 -86 16 12.04867
